CCSDS_OMM_VERS = 2.0
CREATION_DATE  = 
ORIGINATOR     = 

OBJECT_NAME    = CZ-2C R/B
OBJECT_ID      = 2022-132E
CENTER_NAME    = EARTH
REF_FRAME      = TEME
TIME_SYSTEM    = UTC
MEAN_ELEMENT_THEORY = SGP/SGP4

EPOCH          = 2025-12-05T23:25:45.998976
MEAN_MOTION    = 15.54188655
ECCENTRICITY   = .00236897
INCLINATION    = 97.2941
RA_OF_ASC_NODE = 336.0481
ARG_OF_PERICENTER = 79.0271
MEAN_ANOMALY   = 281.3647

EPHEMERIS_TYPE = 0
CLASSIFICATION_TYPE = U
NORAD_CAT_ID   = 54039
ELEMENT_SET_NO = 999
REV_AT_EPOCH   = 17578
BSTAR          = .71363263E-3
MEAN_MOTION_DOT = .47118E-3
MEAN_MOTION_DDOT = 0

CCSDS_OMM_VERS = 2.0
CREATION_DATE  = 
ORIGINATOR     = 

OBJECT_NAME    = GSLV R/B
OBJECT_ID      = 2022-138AN
CENTER_NAME    = EARTH
REF_FRAME      = TEME
TIME_SYSTEM    = UTC
MEAN_ELEMENT_THEORY = SGP/SGP4

EPOCH          = 2025-12-05T21:35:32.609472
MEAN_MOTION    = 14.96078340
ECCENTRICITY   = .00235386
INCLINATION    = 87.3832
RA_OF_ASC_NODE = 197.7646
ARG_OF_PERICENTER = 128.1348
MEAN_ANOMALY   = 232.2010

EPHEMERIS_TYPE = 0
CLASSIFICATION_TYPE = U
NORAD_CAT_ID   = 54149
ELEMENT_SET_NO = 999
REV_AT_EPOCH   = 16990
BSTAR          = .43382192E-3
MEAN_MOTION_DOT = .4928E-4
MEAN_MOTION_DDOT = 0

CCSDS_OMM_VERS = 2.0
CREATION_DATE  = 
ORIGINATOR     = 

OBJECT_NAME    = XRISM
OBJECT_ID      = 2023-137A
CENTER_NAME    = EARTH
REF_FRAME      = TEME
TIME_SYSTEM    = UTC
MEAN_ELEMENT_THEORY = SGP/SGP4

EPOCH          = 2025-12-05T21:28:28.248960
MEAN_MOTION    = 15.10237069
ECCENTRICITY   = .00076456
INCLINATION    = 30.9996
RA_OF_ASC_NODE = 169.7361
ARG_OF_PERICENTER = 176.4888
MEAN_ANOMALY   = 183.5804

EPHEMERIS_TYPE = 0
CLASSIFICATION_TYPE = U
NORAD_CAT_ID   = 57800
ELEMENT_SET_NO = 999
REV_AT_EPOCH   = 12359
BSTAR          = .39474561E-3
MEAN_MOTION_DOT = .6716E-4
MEAN_MOTION_DDOT = 0

CCSDS_OMM_VERS = 2.0
CREATION_DATE  = 
ORIGINATOR     = 

OBJECT_NAME    = ACS3
OBJECT_ID      = 2024-077B
CENTER_NAME    = EARTH
REF_FRAME      = TEME
TIME_SYSTEM    = UTC
MEAN_ELEMENT_THEORY = SGP/SGP4

EPOCH          = 2025-12-05T21:24:37.711296
MEAN_MOTION    = 13.84980012
ECCENTRICITY   = .00777661
INCLINATION    = 97.2743
RA_OF_ASC_NODE = 297.0262
ARG_OF_PERICENTER = 353.2550
MEAN_ANOMALY   = 6.7558

EPHEMERIS_TYPE = 0
CLASSIFICATION_TYPE = U
NORAD_CAT_ID   = 59588
ELEMENT_SET_NO = 999
REV_AT_EPOCH   = 8119
BSTAR          = .42628142E-1
MEAN_MOTION_DOT = .49605E-3
MEAN_MOTION_DDOT = 0

