CZ-2C R/B               
1 54039U 22132E   25339.97622684  .00047118  00000+0  71363-3 0  9990
2 54039  97.2941 336.0481 0023689  79.0271 281.3647 15.54188655175781
GSLV R/B                
1 54149U 22138AN  25339.89968298  .00004928  00000+0  43382-3 0  9995
2 54149  87.3832 197.7646 0023538 128.1348 232.2010 14.96078340169901
XRISM                   
1 57800U 23137A   25339.89477140  .00006716  00000+0  39475-3 0  9998
2 57800  30.9996 169.7361 0007645 176.4888 183.5804 15.10237069123598
ACS3                    
1 59588U 24077B   25339.89210314  .00049605  00000+0  42628-1 0  9991
2 59588  97.2743 297.0262 0077766 353.2550   6.7558 13.84980012 81199
